CCSDS_OMM_VERS = 2.0
CREATION_DATE  = 
ORIGINATOR     = 

OBJECT_NAME    = STARLINK-36654
OBJECT_ID      = 2026-033T
CENTER_NAME    = EARTH
REF_FRAME      = TEME
TIME_SYSTEM    = UTC
MEAN_ELEMENT_THEORY = SGP/SGP4

EPOCH          = 2026-03-04T16:40:30.599040
MEAN_MOTION    = 15.82402796
ECCENTRICITY   = .0003479
INCLINATION    = 42.9969
RA_OF_ASC_NODE = 301.9648
ARG_OF_PERICENTER = 238.6717
MEAN_ANOMALY   = 121.3815

EPHEMERIS_TYPE = 0
CLASSIFICATION_TYPE = U
NORAD_CAT_ID   = 67838
ELEMENT_SET_NO = 999
REV_AT_EPOCH   = 383
BSTAR          = .37217E-2
MEAN_MOTION_DOT = .88413E-2
MEAN_MOTION_DDOT = 0

CCSDS_OMM_VERS = 2.0
CREATION_DATE  = 
ORIGINATOR     = 

OBJECT_NAME    = STARLINK-36652
OBJECT_ID      = 2026-033U
CENTER_NAME    = EARTH
REF_FRAME      = TEME
TIME_SYSTEM    = UTC
MEAN_ELEMENT_THEORY = SGP/SGP4

EPOCH          = 2026-03-04T19:41:16.072224
MEAN_MOTION    = 15.81993451
ECCENTRICITY   = .0004269
INCLINATION    = 42.9964
RA_OF_ASC_NODE = 301.1853
ARG_OF_PERICENTER = 300.0902
MEAN_ANOMALY   = 59.9547

EPHEMERIS_TYPE = 0
CLASSIFICATION_TYPE = U
NORAD_CAT_ID   = 67839
ELEMENT_SET_NO = 999
REV_AT_EPOCH   = 385
BSTAR          = .2947E-2
MEAN_MOTION_DOT = .669749E-2
MEAN_MOTION_DDOT = 0

CCSDS_OMM_VERS = 2.0
CREATION_DATE  = 
ORIGINATOR     = 

OBJECT_NAME    = STARLINK-36651
OBJECT_ID      = 2026-033V
CENTER_NAME    = EARTH
REF_FRAME      = TEME
TIME_SYSTEM    = UTC
MEAN_ELEMENT_THEORY = SGP/SGP4

EPOCH          = 2026-03-04T16:38:21.179616
MEAN_MOTION    = 15.82384287
ECCENTRICITY   = .0003761
INCLINATION    = 42.9969
RA_OF_ASC_NODE = 301.9528
ARG_OF_PERICENTER = 258.1196
MEAN_ANOMALY   = 101.9254

EPHEMERIS_TYPE = 0
CLASSIFICATION_TYPE = U
NORAD_CAT_ID   = 67840
ELEMENT_SET_NO = 999
REV_AT_EPOCH   = 383
BSTAR          = .35687E-2
MEAN_MOTION_DOT = .842935E-2
MEAN_MOTION_DDOT = 0

CCSDS_OMM_VERS = 2.0
CREATION_DATE  = 
ORIGINATOR     = 

OBJECT_NAME    = STARLINK-36656
OBJECT_ID      = 2026-033W
CENTER_NAME    = EARTH
REF_FRAME      = TEME
TIME_SYSTEM    = UTC
MEAN_ELEMENT_THEORY = SGP/SGP4

EPOCH          = 2026-03-04T16:37:16.523904
MEAN_MOTION    = 15.82391649
ECCENTRICITY   = .0002323
INCLINATION    = 42.9969
RA_OF_ASC_NODE = 301.9467
ARG_OF_PERICENTER = 264.5018
MEAN_ANOMALY   = 95.5589

EPHEMERIS_TYPE = 0
CLASSIFICATION_TYPE = U
NORAD_CAT_ID   = 67841
ELEMENT_SET_NO = 999
REV_AT_EPOCH   = 383
BSTAR          = .37022E-2
MEAN_MOTION_DOT = .878578E-2
MEAN_MOTION_DDOT = 0

CCSDS_OMM_VERS = 2.0
CREATION_DATE  = 
ORIGINATOR     = 

OBJECT_NAME    = STARLINK-36653
OBJECT_ID      = 2026-033X
CENTER_NAME    = EARTH
REF_FRAME      = TEME
TIME_SYSTEM    = UTC
MEAN_ELEMENT_THEORY = SGP/SGP4

EPOCH          = 2026-03-04T16:36:11.664288
MEAN_MOTION    = 15.82063255
ECCENTRICITY   = .0001722
INCLINATION    = 42.9969
RA_OF_ASC_NODE = 301.9401
ARG_OF_PERICENTER = 281.6713
MEAN_ANOMALY   = 78.3966

EPHEMERIS_TYPE = 0
CLASSIFICATION_TYPE = U
NORAD_CAT_ID   = 67842
ELEMENT_SET_NO = 999
REV_AT_EPOCH   = 383
BSTAR          = .16536E-2
MEAN_MOTION_DOT = .363487E-2
MEAN_MOTION_DDOT = 0

CCSDS_OMM_VERS = 2.0
CREATION_DATE  = 
ORIGINATOR     = 

OBJECT_NAME    = STARLINK-36589
OBJECT_ID      = 2026-033Y
CENTER_NAME    = EARTH
REF_FRAME      = TEME
TIME_SYSTEM    = UTC
MEAN_ELEMENT_THEORY = SGP/SGP4

EPOCH          = 2026-03-04T16:35:06.806400
MEAN_MOTION    = 15.82017259
ECCENTRICITY   = .0001878
INCLINATION    = 42.9967
RA_OF_ASC_NODE = 301.9341
ARG_OF_PERICENTER = 236.6658
MEAN_ANOMALY   = 123.4034

EPHEMERIS_TYPE = 0
CLASSIFICATION_TYPE = U
NORAD_CAT_ID   = 67843
ELEMENT_SET_NO = 999
REV_AT_EPOCH   = 383
BSTAR          = .20711E-2
MEAN_MOTION_DOT = .459569E-2
MEAN_MOTION_DDOT = 0

CCSDS_OMM_VERS = 2.0
CREATION_DATE  = 
ORIGINATOR     = 

OBJECT_NAME    = STARLINK-36598
OBJECT_ID      = 2026-033Z
CENTER_NAME    = EARTH
REF_FRAME      = TEME
TIME_SYSTEM    = UTC
MEAN_ELEMENT_THEORY = SGP/SGP4

EPOCH          = 2026-03-04T16:34:02.158464
MEAN_MOTION    = 15.82471644
ECCENTRICITY   = .0003175
INCLINATION    = 42.9965
RA_OF_ASC_NODE = 301.9279
ARG_OF_PERICENTER = 232.1149
MEAN_ANOMALY   = 127.9436

EPHEMERIS_TYPE = 0
CLASSIFICATION_TYPE = U
NORAD_CAT_ID   = 67844
ELEMENT_SET_NO = 999
REV_AT_EPOCH   = 383
BSTAR          = .3692E-2
MEAN_MOTION_DOT = .879441E-2
MEAN_MOTION_DDOT = 0

CCSDS_OMM_VERS = 2.0
CREATION_DATE  = 
ORIGINATOR     = 

OBJECT_NAME    = STARLINK-36606
OBJECT_ID      = 2026-033AA
CENTER_NAME    = EARTH
REF_FRAME      = TEME
TIME_SYSTEM    = UTC
MEAN_ELEMENT_THEORY = SGP/SGP4

EPOCH          = 2026-03-04T16:32:57.428448
MEAN_MOTION    = 15.82029332
ECCENTRICITY   = .0002145
INCLINATION    = 42.9971
RA_OF_ASC_NODE = 301.9213
ARG_OF_PERICENTER = 257.6025
MEAN_ANOMALY   = 102.4607

EPHEMERIS_TYPE = 0
CLASSIFICATION_TYPE = U
NORAD_CAT_ID   = 67845
ELEMENT_SET_NO = 999
REV_AT_EPOCH   = 383
BSTAR          = .12296E-2
MEAN_MOTION_DOT = .266686E-2
MEAN_MOTION_DDOT = 0

CCSDS_OMM_VERS = 2.0
CREATION_DATE  = 
ORIGINATOR     = 

OBJECT_NAME    = STARLINK-36658
OBJECT_ID      = 2026-033AB
CENTER_NAME    = EARTH
REF_FRAME      = TEME
TIME_SYSTEM    = UTC
MEAN_ELEMENT_THEORY = SGP/SGP4

EPOCH          = 2026-03-04T16:31:52.750272
MEAN_MOTION    = 15.82409992
ECCENTRICITY   = .0002488
INCLINATION    = 42.9966
RA_OF_ASC_NODE = 301.9149
ARG_OF_PERICENTER = 258.4988
MEAN_ANOMALY   = 101.5605

EPHEMERIS_TYPE = 0
CLASSIFICATION_TYPE = U
NORAD_CAT_ID   = 67846
ELEMENT_SET_NO = 999
REV_AT_EPOCH   = 383
BSTAR          = .37701E-2
MEAN_MOTION_DOT = .897442E-2
MEAN_MOTION_DDOT = 0

CCSDS_OMM_VERS = 2.0
CREATION_DATE  = 
ORIGINATOR     = 

OBJECT_NAME    = STARLINK-36618
OBJECT_ID      = 2026-033AC
CENTER_NAME    = EARTH
REF_FRAME      = TEME
TIME_SYSTEM    = UTC
MEAN_ELEMENT_THEORY = SGP/SGP4

EPOCH          = 2026-03-04T20:00:03.000384
MEAN_MOTION    = 15.95016049
ECCENTRICITY   = .0002235
INCLINATION    = 42.9848
RA_OF_ASC_NODE = 299.2571
ARG_OF_PERICENTER = 273.1202
MEAN_ANOMALY   = 170.1984

EPHEMERIS_TYPE = 0
CLASSIFICATION_TYPE = U
NORAD_CAT_ID   = 67847
ELEMENT_SET_NO = 999
REV_AT_EPOCH   = 388
BSTAR          = -.28589E-2
MEAN_MOTION_DOT = -.1153703E-1
MEAN_MOTION_DDOT = .40422E-3

CCSDS_OMM_VERS = 2.0
CREATION_DATE  = 
ORIGINATOR     = 

OBJECT_NAME    = STARLINK-36660
OBJECT_ID      = 2026-033AD
CENTER_NAME    = EARTH
REF_FRAME      = TEME
TIME_SYSTEM    = UTC
MEAN_ELEMENT_THEORY = SGP/SGP4

EPOCH          = 2026-03-04T16:30:47.863872
MEAN_MOTION    = 15.82469422
ECCENTRICITY   = .0003787
INCLINATION    = 42.9963
RA_OF_ASC_NODE = 301.9092
ARG_OF_PERICENTER = 244.3785
MEAN_ANOMALY   = 115.6695

EPHEMERIS_TYPE = 0
CLASSIFICATION_TYPE = U
NORAD_CAT_ID   = 67848
ELEMENT_SET_NO = 999
REV_AT_EPOCH   = 383
BSTAR          = .3745E-2
MEAN_MOTION_DOT = .893396E-2
MEAN_MOTION_DDOT = 0

CCSDS_OMM_VERS = 2.0
CREATION_DATE  = 
ORIGINATOR     = 

OBJECT_NAME    = STARLINK-36602
OBJECT_ID      = 2026-033AE
CENTER_NAME    = EARTH
REF_FRAME      = TEME
TIME_SYSTEM    = UTC
MEAN_ELEMENT_THEORY = SGP/SGP4

EPOCH          = 2026-03-04T16:29:43.314432
MEAN_MOTION    = 15.82022080
ECCENTRICITY   = .0002274
INCLINATION    = 42.9971
RA_OF_ASC_NODE = 301.9021
ARG_OF_PERICENTER = 303.3942
MEAN_ANOMALY   = 56.6712

EPHEMERIS_TYPE = 0
CLASSIFICATION_TYPE = U
NORAD_CAT_ID   = 67849
ELEMENT_SET_NO = 999
REV_AT_EPOCH   = 383
BSTAR          = .12494E-2
MEAN_MOTION_DOT = .271036E-2
MEAN_MOTION_DDOT = 0

