STARLINK-36654          
1 67838U 26033T   26063.69479860  .00884130  00000+0  37217-2 0  9997
2 67838  42.9969 301.9648 0003479 238.6717 121.3815 15.82402796  3830
STARLINK-36652          
1 67839U 26033U   26063.82032491  .00669749  00000+0  29470-2 0  9997
2 67839  42.9964 301.1853 0004269 300.0902  59.9547 15.81993451  3856
STARLINK-36651          
1 67840U 26033V   26063.69330069  .00842935  00000+0  35687-2 0  9993
2 67840  42.9969 301.9528 0003761 258.1196 101.9254 15.82384287  3837
STARLINK-36656          
1 67841U 26033W   26063.69255236  .00878578  00000+0  37022-2 0  9993
2 67841  42.9969 301.9467 0002323 264.5018  95.5589 15.82391649  3836
STARLINK-36653          
1 67842U 26033X   26063.69180167  .00363487  00000+0  16536-2 0  9999
2 67842  42.9969 301.9401 0001722 281.6713  78.3966 15.82063255  3836
STARLINK-36589          
1 67843U 26033Y   26063.69105100  .00459569  00000+0  20711-2 0  9991
2 67843  42.9967 301.9341 0001878 236.6658 123.4034 15.82017259  3839
STARLINK-36598          
1 67844U 26033Z   26063.69030276  .00879441  00000+0  36920-2 0  9997
2 67844  42.9965 301.9279 0003175 232.1149 127.9436 15.82471644  3833
STARLINK-36606          
1 67845U 26033AA  26063.68955357  .00266686  00000+0  12296-2 0  9994
2 67845  42.9971 301.9213 0002145 257.6025 102.4607 15.82029332  3831
STARLINK-36658          
1 67846U 26033AB  26063.68880498  .00897442  00000+0  37701-2 0  9996
2 67846  42.9966 301.9149 0002488 258.4988 101.5605 15.82409992  3833
STARLINK-36618          
1 67847U 26033AC  26063.83336806 -.01153703  40422-3 -28589-2 0  9991
2 67847  42.9848 299.2571 0002235 273.1202 170.1984 15.95016049  3882
STARLINK-36660          
1 67848U 26033AD  26063.68805398  .00893396  00000+0  37450-2 0  9999
2 67848  42.9963 301.9092 0003787 244.3785 115.6695 15.82469422  3830
STARLINK-36602          
1 67849U 26033AE  26063.68730688  .00271036  00000+0  12494-2 0  9991
2 67849  42.9971 301.9021 0002274 303.3942  56.6712 15.82022080  3832
